CCSDS_OMM_VERS = 2.0
CREATION_DATE  = 
ORIGINATOR     = 

OBJECT_NAME    = IDEFIX & ARIANE 42P R/B
OBJECT_ID      = 2002-021B
CENTER_NAME    = EARTH
REF_FRAME      = TEME
TIME_SYSTEM    = UTC
MEAN_ELEMENT_THEORY = SGP/SGP4

EPOCH          = 2026-01-09T16:36:52.045056
MEAN_MOTION    = 14.30975874
ECCENTRICITY   = .00120391
INCLINATION    = 98.5815
RA_OF_ASC_NODE = 309.0251
ARG_OF_PERICENTER = 6.7738
MEAN_ANOMALY   = 353.3605

EPHEMERIS_TYPE = 0
CLASSIFICATION_TYPE = U
NORAD_CAT_ID   = 27422
ELEMENT_SET_NO = 999
REV_AT_EPOCH   = 23558
BSTAR          = .14723373E-3
MEAN_MOTION_DOT = .344E-5
MEAN_MOTION_DDOT = 0

CCSDS_OMM_VERS = 2.0
CREATION_DATE  = 
ORIGINATOR     = 

OBJECT_NAME    = AQUA
OBJECT_ID      = 2002-022A
CENTER_NAME    = EARTH
REF_FRAME      = TEME
TIME_SYSTEM    = UTC
MEAN_ELEMENT_THEORY = SGP/SGP4

EPOCH          = 2026-01-09T21:29:06.036864
MEAN_MOTION    = 14.61811442
ECCENTRICITY   = .00020321
INCLINATION    = 98.4076
RA_OF_ASC_NODE = 336.2372
ARG_OF_PERICENTER = 84.5955
MEAN_ANOMALY   = 1.0356

EPHEMERIS_TYPE = 0
CLASSIFICATION_TYPE = U
NORAD_CAT_ID   = 27424
ELEMENT_SET_NO = 999
REV_AT_EPOCH   = 26014
BSTAR          = .21914087E-3
MEAN_MOTION_DOT = .1045E-4
MEAN_MOTION_DDOT = 0

CCSDS_OMM_VERS = 2.0
CREATION_DATE  = 
ORIGINATOR     = 

OBJECT_NAME    = CZ-4B R/B
OBJECT_ID      = 2002-024C
CENTER_NAME    = EARTH
REF_FRAME      = TEME
TIME_SYSTEM    = UTC
MEAN_ELEMENT_THEORY = SGP/SGP4

EPOCH          = 2026-01-09T16:00:08.337024
MEAN_MOTION    = 14.14534957
ECCENTRICITY   = .0050054
INCLINATION    = 98.8957
RA_OF_ASC_NODE = 63.3354
ARG_OF_PERICENTER = 189.5752
MEAN_ANOMALY   = 284.6453

EPHEMERIS_TYPE = 0
CLASSIFICATION_TYPE = U
NORAD_CAT_ID   = 27432
ELEMENT_SET_NO = 999
REV_AT_EPOCH   = 22089
BSTAR          = .45471618E-4
MEAN_MOTION_DOT = .44E-6
MEAN_MOTION_DDOT = 0

CCSDS_OMM_VERS = 2.0
CREATION_DATE  = 
ORIGINATOR     = 

OBJECT_NAME    = MIDORI II (ADEOS-II)
OBJECT_ID      = 2002-056A
CENTER_NAME    = EARTH
REF_FRAME      = TEME
TIME_SYSTEM    = UTC
MEAN_ELEMENT_THEORY = SGP/SGP4

EPOCH          = 2026-01-09T13:53:13.787520
MEAN_MOTION    = 14.29231694
ECCENTRICITY   = .00014933
INCLINATION    = 98.7674
RA_OF_ASC_NODE = 327.6867
ARG_OF_PERICENTER = 125.9943
MEAN_ANOMALY   = 234.1377

EPHEMERIS_TYPE = 0
CLASSIFICATION_TYPE = U
NORAD_CAT_ID   = 27597
ELEMENT_SET_NO = 999
REV_AT_EPOCH   = 20185
BSTAR          = .16398893E-3
MEAN_MOTION_DOT = .372E-5
MEAN_MOTION_DDOT = 0

CCSDS_OMM_VERS = 2.0
CREATION_DATE  = 
ORIGINATOR     = 

OBJECT_NAME    = H-2A R/B
OBJECT_ID      = 2002-056E
CENTER_NAME    = EARTH
REF_FRAME      = TEME
TIME_SYSTEM    = UTC
MEAN_ELEMENT_THEORY = SGP/SGP4

EPOCH          = 2026-01-09T16:30:55.944000
MEAN_MOTION    = 14.33707641
ECCENTRICITY   = .00699231
INCLINATION    = 98.3103
RA_OF_ASC_NODE = 332.3384
ARG_OF_PERICENTER = 338.4088
MEAN_ANOMALY   = 193.8996

EPHEMERIS_TYPE = 0
CLASSIFICATION_TYPE = U
NORAD_CAT_ID   = 27601
ELEMENT_SET_NO = 999
REV_AT_EPOCH   = 20565
BSTAR          = .16687589E-3
MEAN_MOTION_DOT = .434E-5
MEAN_MOTION_DDOT = 0

CCSDS_OMM_VERS = 2.0
CREATION_DATE  = 
ORIGINATOR     = 

OBJECT_NAME    = CZ-4B R/B
OBJECT_ID      = 2003-049C
CENTER_NAME    = EARTH
REF_FRAME      = TEME
TIME_SYSTEM    = UTC
MEAN_ELEMENT_THEORY = SGP/SGP4

EPOCH          = 2026-01-09T14:03:41.395392
MEAN_MOTION    = 14.54943441
ECCENTRICITY   = .00491645
INCLINATION    = 98.6811
RA_OF_ASC_NODE = 2.2052
ARG_OF_PERICENTER = 52.8850
MEAN_ANOMALY   = 307.6823

EPHEMERIS_TYPE = 0
CLASSIFICATION_TYPE = U
NORAD_CAT_ID   = 28059
ELEMENT_SET_NO = 999
REV_AT_EPOCH   = 17800
BSTAR          = .12686702E-3
MEAN_MOTION_DOT = .503E-5
MEAN_MOTION_DDOT = 0

CCSDS_OMM_VERS = 2.0
CREATION_DATE  = 
ORIGINATOR     = 

OBJECT_NAME    = CZ-2C R/B
OBJECT_ID      = 2004-012C
CENTER_NAME    = EARTH
REF_FRAME      = TEME
TIME_SYSTEM    = UTC
MEAN_ELEMENT_THEORY = SGP/SGP4

EPOCH          = 2026-01-09T15:18:17.976384
MEAN_MOTION    = 15.58021486
ECCENTRICITY   = .00169131
INCLINATION    = 97.7367
RA_OF_ASC_NODE = 69.6061
ARG_OF_PERICENTER = 164.6707
MEAN_ANOMALY   = 195.5064

EPHEMERIS_TYPE = 0
CLASSIFICATION_TYPE = U
NORAD_CAT_ID   = 28222
ELEMENT_SET_NO = 999
REV_AT_EPOCH   = 19506
BSTAR          = .56080196E-3
MEAN_MOTION_DOT = .42357E-3
MEAN_MOTION_DDOT = 0

CCSDS_OMM_VERS = 2.0
CREATION_DATE  = 
ORIGINATOR     = 

OBJECT_NAME    = SL-16 R/B
OBJECT_ID      = 2004-021B
CENTER_NAME    = EARTH
REF_FRAME      = TEME
TIME_SYSTEM    = UTC
MEAN_ELEMENT_THEORY = SGP/SGP4

EPOCH          = 2026-01-09T09:53:04.913088
MEAN_MOTION    = 14.14591229
ECCENTRICITY   = .0003499
INCLINATION    = 71.0022
RA_OF_ASC_NODE = 356.8915
ARG_OF_PERICENTER = 154.3414
MEAN_ANOMALY   = 205.7883

EPHEMERIS_TYPE = 0
CLASSIFICATION_TYPE = U
NORAD_CAT_ID   = 28353
ELEMENT_SET_NO = 999
REV_AT_EPOCH   = 11445
BSTAR          = .12599472E-3
MEAN_MOTION_DOT = .195E-5
MEAN_MOTION_DDOT = 0

CCSDS_OMM_VERS = 2.0
CREATION_DATE  = 
ORIGINATOR     = 

OBJECT_NAME    = CZ-4B R/B
OBJECT_ID      = 2004-035C
CENTER_NAME    = EARTH
REF_FRAME      = TEME
TIME_SYSTEM    = UTC
MEAN_ELEMENT_THEORY = SGP/SGP4

EPOCH          = 2026-01-09T15:53:48.425856
MEAN_MOTION    = 15.27920468
ECCENTRICITY   = .00329621
INCLINATION    = 97.3580
RA_OF_ASC_NODE = 44.6385
ARG_OF_PERICENTER = 175.1429
MEAN_ANOMALY   = 185.0137

EPHEMERIS_TYPE = 0
CLASSIFICATION_TYPE = U
NORAD_CAT_ID   = 28415
ELEMENT_SET_NO = 999
REV_AT_EPOCH   = 17089
BSTAR          = .31585577E-3
MEAN_MOTION_DOT = .8672E-4
MEAN_MOTION_DDOT = 0

CCSDS_OMM_VERS = 2.0
CREATION_DATE  = 
ORIGINATOR     = 

OBJECT_NAME    = CZ-2C R/B
OBJECT_ID      = 2004-046B
CENTER_NAME    = EARTH
REF_FRAME      = TEME
TIME_SYSTEM    = UTC
MEAN_ELEMENT_THEORY = SGP/SGP4

EPOCH          = 2026-01-09T15:44:30.150528
MEAN_MOTION    = 14.26963331
ECCENTRICITY   = .01389418
INCLINATION    = 98.1999
RA_OF_ASC_NODE = 288.3015
ARG_OF_PERICENTER = 329.9326
MEAN_ANOMALY   = 29.3931

EPHEMERIS_TYPE = 0
CLASSIFICATION_TYPE = U
NORAD_CAT_ID   = 28480
ELEMENT_SET_NO = 999
REV_AT_EPOCH   = 10008
BSTAR          = .12582132E-3
MEAN_MOTION_DOT = .296E-5
MEAN_MOTION_DDOT = 0

CCSDS_OMM_VERS = 2.0
CREATION_DATE  = 
ORIGINATOR     = 

OBJECT_NAME    = ARIANE 5 R/B
OBJECT_ID      = 2004-049H
CENTER_NAME    = EARTH
REF_FRAME      = TEME
TIME_SYSTEM    = UTC
MEAN_ELEMENT_THEORY = SGP/SGP4

EPOCH          = 2026-01-09T13:08:15.525888
MEAN_MOTION    = 14.85107496
ECCENTRICITY   = .00843278
INCLINATION    = 98.2541
RA_OF_ASC_NODE = 175.8303
ARG_OF_PERICENTER = 181.9693
MEAN_ANOMALY   = 178.1201

EPHEMERIS_TYPE = 0
CLASSIFICATION_TYPE = U
NORAD_CAT_ID   = 28499
ELEMENT_SET_NO = 999
REV_AT_EPOCH   = 13701
BSTAR          = .170559E-3
MEAN_MOTION_DOT = .149E-4
MEAN_MOTION_DDOT = 0

CCSDS_OMM_VERS = 2.0
CREATION_DATE  = 
ORIGINATOR     = 

OBJECT_NAME    = CZ-2D R/B
OBJECT_ID      = 2005-024B
CENTER_NAME    = EARTH
REF_FRAME      = TEME
TIME_SYSTEM    = UTC
MEAN_ELEMENT_THEORY = SGP/SGP4

EPOCH          = 2026-01-09T14:27:11.492640
MEAN_MOTION    = 15.55154321
ECCENTRICITY   = .00035221
INCLINATION    = 97.3629
RA_OF_ASC_NODE = 22.8152
ARG_OF_PERICENTER = 215.3420
MEAN_ANOMALY   = 144.7601

EPHEMERIS_TYPE = 0
CLASSIFICATION_TYPE = U
NORAD_CAT_ID   = 28738
ELEMENT_SET_NO = 999
REV_AT_EPOCH   = 13058
BSTAR          = .47186341E-3
MEAN_MOTION_DOT = .31797E-3
MEAN_MOTION_DDOT = 0

