IDEFIX & ARIANE 42P R/B 
1 27422U 02021B   26009.69226904  .00000344  00000+0  14723-3 0  9997
2 27422  98.5815 309.0251 0012039   6.7738 353.3605 14.30975874235587
AQUA                    
1 27424U 02022A   26009.89520876  .00001045  00000+0  21914-3 0  9996
2 27424  98.4076 336.2372 0002032  84.5955   1.0356 14.61811442260144
CZ-4B R/B               
1 27432U 02024C   26009.66676316  .00000044  00000+0  45472-4 0  9997
2 27432  98.8957  63.3354 0050054 189.5752 284.6453 14.14534957220897
MIDORI II (ADEOS-II)    
1 27597U 02056A   26009.57863180  .00000372  00000+0  16399-3 0  9990
2 27597  98.7674 327.6867 0001493 125.9943 234.1377 14.29231694201856
H-2A R/B                
1 27601U 02056E   26009.68814750  .00000434  00000+0  16688-3 0  9997
2 27601  98.3103 332.3384 0069923 338.4088 193.8996 14.33707641205650
CZ-4B R/B               
1 28059U 03049C   26009.58589578  .00000503  00000+0  12687-3 0  9996
2 28059  98.6811   2.2052 0049164  52.8850 307.6823 14.54943441178006
CZ-2C R/B               
1 28222U 04012C   26009.63770806  .00042357  00000+0  56080-3 0  9999
2 28222  97.7367  69.6061 0016913 164.6707 195.5064 15.58021486195067
SL-16 R/B               
1 28353U 04021B   26009.41186242  .00000195  00000+0  12599-3 0  9996
2 28353  71.0022 356.8915 0003499 154.3414 205.7883 14.14591229114455
CZ-4B R/B               
1 28415U 04035C   26009.66236604  .00008672  00000+0  31586-3 0  9990
2 28415  97.3580  44.6385 0032962 175.1429 185.0137 15.27920468170899
CZ-2C R/B               
1 28480U 04046B   26009.65590452  .00000296  00000+0  12582-3 0  9996
2 28480  98.1999 288.3015 0138941 329.9326  29.3931 14.26963331100080
ARIANE 5 R/B            
1 28499U 04049H   26009.54740192  .00001490  00000+0  17056-3 0  9993
2 28499  98.2541 175.8303 0084327 181.9693 178.1201 14.85107496137018
CZ-2D R/B               
1 28738U 05024B   26009.60221635  .00031797  00000+0  47186-3 0  9996
2 28738  97.3629  22.8152 0003522 215.3420 144.7601 15.55154321130587
